[
    {
        "Altitude(m)": 703071.209692428,
        "Argument of Periapsis(deg)": 0.011390121186627068,
        "Eccentricity": 0.0,
        "Inclination(deg)": 45.0,
        "Latitude(deg)": 3.364768038516262,
        "Longitude(deg)": -124.12638897950261,
        "Mean Anomaly(deg)": 175.16961664748084,
        "RAAN(deg)": 159.98924805854182,
        "Satellite Name": "Constellation 1 714",
        "Satellite Number": 714,
        "Semi-Major Axis(m)": 7083131.272910544,
        "Time(s)": 190
    },
    {
        "Altitude(m)": 703075.20637115,
        "Argument of Periapsis(deg)": 0.011450069192872472,
        "Eccentricity": 0.0,
        "Inclination(deg)": 45.0,
        "Latitude(deg)": 3.3216218708417005,
        "Longitude(deg)": -124.08749014380464,
        "Mean Anomaly(deg)": 175.23031778773068,
        "RAAN(deg)": 159.9891914693762,
        "Satellite Name": "Constellation 1 714",
        "Satellite Number": 714,
        "Semi-Major Axis(m)": 7083131.272910544,
        "Time(s)": 191
    },
    {
        "Altitude(m)": 703079.2239052485,
        "Argument of Periapsis(deg)": 0.01151001719911788,
        "Eccentricity": 0.0,
        "Inclination(deg)": 45.0,
        "Latitude(deg)": 3.2784738465948715,
        "Longitude(deg)": -124.0485950996232,
        "Mean Anomaly(deg)": 175.29101892798062,
        "RAAN(deg)": 159.98913488021066,
        "Satellite Name": "Constellation 1 714",
        "Satellite Number": 714,
        "Semi-Major Axis(m)": 7083131.272910544,
        "Time(s)": 192
    },
    {
        "Altitude(m)": 703083.2622954731,
        "Argument of Periapsis(deg)": 0.011569965205363285,
        "Eccentricity": 0.0,
        "Inclination(deg)": 45.0,
        "Latitude(deg)": 3.235323991001648,
        "Longitude(deg)": -124.00970396641331,
        "Mean Anomaly(deg)": 175.35172006823058,
        "RAAN(deg)": 159.98907829104508,
        "Satellite Name": "Constellation 1 714",
        "Satellite Number": 714,
        "Semi-Major Axis(m)": 7083131.272910544,
        "Time(s)": 193
    },
    {
        "Altitude(m)": 703087.3215424671,
        "Argument of Periapsis(deg)": 0.01162991321160869,
        "Eccentricity": 0.0,
        "Inclination(deg)": 45.0,
        "Latitude(deg)": 3.1921723292800706,
        "Longitude(deg)": -123.97081635934762,
        "Mean Anomaly(deg)": 175.41242120848042,
        "RAAN(deg)": 159.98902170187952,
        "Satellite Name": "Constellation 1 714",
        "Satellite Number": 714,
        "Semi-Major Axis(m)": 7083131.272910544,
        "Time(s)": 194
    },
    {
        "Altitude(m)": 703091.4016467942,
        "Argument of Periapsis(deg)": 0.011689861217854095,
        "Eccentricity": 0.0,
        "Inclination(deg)": 45.0,
        "Latitude(deg)": 3.1490188866413504,
        "Longitude(deg)": -123.93193239789798,
        "Mean Anomaly(deg)": 175.47312234873033,
        "RAAN(deg)": 159.98896511271397,
        "Satellite Name": "Constellation 1 714",
        "Satellite Number": 714,
        "Semi-Major Axis(m)": 7083131.272910544,
        "Time(s)": 195
    },
    {
        "Altitude(m)": 703095.5026089133,
        "Argument of Periapsis(deg)": 0.0117498092240995,
        "Eccentricity": 0.0,
        "Inclination(deg)": 45.0,
        "Latitude(deg)": 3.1058636882896873,
        "Longitude(deg)": -123.89305203344779,
        "Mean Anomaly(deg)": 175.53382348898018,
        "RAAN(deg)": 159.98890852354836,
        "Satellite Name": "Constellation 1 714",
        "Satellite Number": 714,
        "Semi-Major Axis(m)": 7083131.272910544,
        "Time(s)": 196
    },
    {
        "Altitude(m)": 703099.6244291961,
        "Argument of Periapsis(deg)": 0.011809757230344905,
        "Eccentricity": 0.0,
        "Inclination(deg)": 45.0,
        "Latitude(deg)": 3.0627067594222694,
        "Longitude(deg)": -123.85417521738859,
        "Mean Anomaly(deg)": 175.59452462923016,
        "RAAN(deg)": 159.9888519343828,
        "Satellite Name": "Constellation 1 714",
        "Satellite Number": 714,
        "Semi-Major Axis(m)": 7083131.272910544,
        "Time(s)": 197
    },
    {
        "Altitude(m)": 703103.7671079256,
        "Argument of Periapsis(deg)": 0.011869705236590313,
        "Eccentricity": 0.0,
        "Inclination(deg)": 45.0,
        "Latitude(deg)": 3.019548125229482,
        "Longitude(deg)": -123.81530190112007,
        "Mean Anomaly(deg)": 175.65522576948,
        "RAAN(deg)": 159.98879534521723,
        "Satellite Name": "Constellation 1 714",
        "Satellite Number": 714,
        "Semi-Major Axis(m)": 7083131.272910544,
        "Time(s)": 198
    },
    {
        "Altitude(m)": 703107.930645283,
        "Argument of Periapsis(deg)": 0.011929653242835719,
        "Eccentricity": 0.0,
        "Inclination(deg)": 45.0,
        "Latitude(deg)": 2.9763878108947313,
        "Longitude(deg)": -123.77643203604985,
        "Mean Anomaly(deg)": 175.71592690972992,
        "RAAN(deg)": 159.98873875605167,
        "Satellite Name": "Constellation 1 714",
        "Satellite Number": 714,
        "Semi-Major Axis(m)": 7083131.272910544,
        "Time(s)": 199
    }
]